SL-16 R/B               
1 25400U 98043G   25348.27184029  .00000115  00000+0  67150-4 0  9999
2 25400  98.8126 296.0984 0008769 261.7671  98.2514 14.26026101426818
SL-16 R/B               
1 25407U 98045B   25348.31865398 -.00000148  00000+0 -50626-4 0  9996
2 25407  71.0117   1.1065 0006850 174.9850 185.1344 14.16174739415013
ISS (ZARYA)             
1 25544U 98067A   25348.21787239  .00012052  00000+0  22198-3 0  9995
2 25544  51.6305 135.1599 0003264 246.9077 113.1568 15.49586484543084
CZ-4B R/B               
1 25732U 99025C   25348.16191297  .00000119  00000+0  78382-4 0  9994
2 25732  98.6767  29.4101 0036336 229.8372 200.1474 14.18244008376045
OKEAN-O                 
1 25860U 99039A   25348.14159782  .00001050  00000+0  14510-3 0  9999
2 25860  97.9603  43.8312 0000827 101.0746 259.0559 14.80164253421730
SL-16 R/B               
1 25861U 99039B   25348.13533431  .00000878  00000+0  11852-3 0  9999
2 25861  98.0127  42.2867 0015032 170.1118 190.0393 14.81589031424195
DELTA 2 R/B             
1 25876U 99041E   25348.20067126  .00001632  00000+0  30202-3 0  9998
2 25876  51.7611 282.6139 0504677  96.0722 269.7932 14.11406392350958
HELIOS 1B               
1 25977U 99064A   25348.28358544  .00002379  00000+0  27021-3 0  9994
2 25977  98.1755 242.9950 0001619  41.6359 318.4979 14.87291946672561
TERRA                   
1 25994U 99068A   25348.31109007  .00000674  00000+0  14673-3 0  9994
2 25994  97.9749  39.9379 0003599  91.3882 338.4056 14.60904074382617
SL-16 R/B               
1 26070U 00006B   25348.24124764 -.00000176  00000+0 -64825-4 0  9997
2 26070  71.0030 277.5003 0018547 306.5480  53.3935 14.15810362336464
TITAN 4B R/B            
1 26474U 00047B   25348.26774264  .00004481  00000+0  28775-3 0  9992
2 26474  67.9898 280.5635 0038807 142.5548 217.8316 15.08797643380027
ENVISAT                 
1 27386U 02009A   25348.38661397  .00000199  00000+0  78310-4 0  9993
2 27386  98.3602 299.0854 0001141  83.6000  85.8332 14.39000077246908
