CCSDS_OMM_VERS = 2.0
CREATION_DATE  = 
ORIGINATOR     = 

OBJECT_NAME    = SL-16 R/B
OBJECT_ID      = 1998-043G
CENTER_NAME    = EARTH
REF_FRAME      = TEME
TIME_SYSTEM    = UTC
MEAN_ELEMENT_THEORY = SGP/SGP4

EPOCH          = 2025-12-14T06:31:27.001056
MEAN_MOTION    = 14.26026101
ECCENTRICITY   = .00087698
INCLINATION    = 98.8126
RA_OF_ASC_NODE = 296.0984
ARG_OF_PERICENTER = 261.7671
MEAN_ANOMALY   = 98.2514

EPHEMERIS_TYPE = 0
CLASSIFICATION_TYPE = U
NORAD_CAT_ID   = 25400
ELEMENT_SET_NO = 999
REV_AT_EPOCH   = 42681
BSTAR          = .671501E-4
MEAN_MOTION_DOT = .115E-5
MEAN_MOTION_DDOT = 0

CCSDS_OMM_VERS = 2.0
CREATION_DATE  = 
ORIGINATOR     = 

OBJECT_NAME    = SL-16 R/B
OBJECT_ID      = 1998-045B
CENTER_NAME    = EARTH
REF_FRAME      = TEME
TIME_SYSTEM    = UTC
MEAN_ELEMENT_THEORY = SGP/SGP4

EPOCH          = 2025-12-14T07:38:51.703872
MEAN_MOTION    = 14.16174739
ECCENTRICITY   = .00068505
INCLINATION    = 71.0117
RA_OF_ASC_NODE = 1.1065
ARG_OF_PERICENTER = 174.9850
MEAN_ANOMALY   = 185.1344

EPHEMERIS_TYPE = 0
CLASSIFICATION_TYPE = U
NORAD_CAT_ID   = 25407
ELEMENT_SET_NO = 999
REV_AT_EPOCH   = 41501
BSTAR          = -.50625842E-4
MEAN_MOTION_DOT = -.148E-5
MEAN_MOTION_DDOT = 0

CCSDS_OMM_VERS = 2.0
CREATION_DATE  = 
ORIGINATOR     = 

OBJECT_NAME    = ISS (ZARYA)
OBJECT_ID      = 1998-067A
CENTER_NAME    = EARTH
REF_FRAME      = TEME
TIME_SYSTEM    = UTC
MEAN_ELEMENT_THEORY = SGP/SGP4

EPOCH          = 2025-12-14T05:13:44.174496
MEAN_MOTION    = 15.49586484
ECCENTRICITY   = .00032642
INCLINATION    = 51.6305
RA_OF_ASC_NODE = 135.1599
ARG_OF_PERICENTER = 246.9077
MEAN_ANOMALY   = 113.1568

EPHEMERIS_TYPE = 0
CLASSIFICATION_TYPE = U
NORAD_CAT_ID   = 25544
ELEMENT_SET_NO = 999
REV_AT_EPOCH   = 54308
BSTAR          = .22198491E-3
MEAN_MOTION_DOT = .12052E-3
MEAN_MOTION_DDOT = 0

CCSDS_OMM_VERS = 2.0
CREATION_DATE  = 
ORIGINATOR     = 

OBJECT_NAME    = CZ-4B R/B
OBJECT_ID      = 1999-025C
CENTER_NAME    = EARTH
REF_FRAME      = TEME
TIME_SYSTEM    = UTC
MEAN_ELEMENT_THEORY = SGP/SGP4

EPOCH          = 2025-12-14T03:53:09.280608
MEAN_MOTION    = 14.18244008
ECCENTRICITY   = .0036336
INCLINATION    = 98.6767
RA_OF_ASC_NODE = 29.4101
ARG_OF_PERICENTER = 229.8372
MEAN_ANOMALY   = 200.1474

EPHEMERIS_TYPE = 0
CLASSIFICATION_TYPE = U
NORAD_CAT_ID   = 25732
ELEMENT_SET_NO = 999
REV_AT_EPOCH   = 37604
BSTAR          = .78382368E-4
MEAN_MOTION_DOT = .119E-5
MEAN_MOTION_DDOT = 0

CCSDS_OMM_VERS = 2.0
CREATION_DATE  = 
ORIGINATOR     = 

OBJECT_NAME    = OKEAN-O
OBJECT_ID      = 1999-039A
CENTER_NAME    = EARTH
REF_FRAME      = TEME
TIME_SYSTEM    = UTC
MEAN_ELEMENT_THEORY = SGP/SGP4

EPOCH          = 2025-12-14T03:23:54.051648
MEAN_MOTION    = 14.80164253
ECCENTRICITY   = .00008275
INCLINATION    = 97.9603
RA_OF_ASC_NODE = 43.8312
ARG_OF_PERICENTER = 101.0746
MEAN_ANOMALY   = 259.0559

EPHEMERIS_TYPE = 0
CLASSIFICATION_TYPE = U
NORAD_CAT_ID   = 25860
ELEMENT_SET_NO = 999
REV_AT_EPOCH   = 42173
BSTAR          = .14510089E-3
MEAN_MOTION_DOT = .105E-4
MEAN_MOTION_DDOT = 0

CCSDS_OMM_VERS = 2.0
CREATION_DATE  = 
ORIGINATOR     = 

OBJECT_NAME    = SL-16 R/B
OBJECT_ID      = 1999-039B
CENTER_NAME    = EARTH
REF_FRAME      = TEME
TIME_SYSTEM    = UTC
MEAN_ELEMENT_THEORY = SGP/SGP4

EPOCH          = 2025-12-14T03:14:52.884384
MEAN_MOTION    = 14.81589031
ECCENTRICITY   = .00150327
INCLINATION    = 98.0127
RA_OF_ASC_NODE = 42.2867
ARG_OF_PERICENTER = 170.1118
MEAN_ANOMALY   = 190.0393

EPHEMERIS_TYPE = 0
CLASSIFICATION_TYPE = U
NORAD_CAT_ID   = 25861
ELEMENT_SET_NO = 999
REV_AT_EPOCH   = 42419
BSTAR          = .11852206E-3
MEAN_MOTION_DOT = .878E-5
MEAN_MOTION_DDOT = 0

CCSDS_OMM_VERS = 2.0
CREATION_DATE  = 
ORIGINATOR     = 

OBJECT_NAME    = DELTA 2 R/B
OBJECT_ID      = 1999-041E
CENTER_NAME    = EARTH
REF_FRAME      = TEME
TIME_SYSTEM    = UTC
MEAN_ELEMENT_THEORY = SGP/SGP4

EPOCH          = 2025-12-14T04:48:57.996864
MEAN_MOTION    = 14.11406392
ECCENTRICITY   = .05046777
INCLINATION    = 51.7611
RA_OF_ASC_NODE = 282.6139
ARG_OF_PERICENTER = 96.0722
MEAN_ANOMALY   = 269.7932

EPHEMERIS_TYPE = 0
CLASSIFICATION_TYPE = U
NORAD_CAT_ID   = 25876
ELEMENT_SET_NO = 999
REV_AT_EPOCH   = 35095
BSTAR          = .30201812E-3
MEAN_MOTION_DOT = .1632E-4
MEAN_MOTION_DDOT = 0

CCSDS_OMM_VERS = 2.0
CREATION_DATE  = 
ORIGINATOR     = 

OBJECT_NAME    = HELIOS 1B
OBJECT_ID      = 1999-064A
CENTER_NAME    = EARTH
REF_FRAME      = TEME
TIME_SYSTEM    = UTC
MEAN_ELEMENT_THEORY = SGP/SGP4

EPOCH          = 2025-12-14T06:48:21.782016
MEAN_MOTION    = 14.87291946
ECCENTRICITY   = .00016195
INCLINATION    = 98.1755
RA_OF_ASC_NODE = 242.9950
ARG_OF_PERICENTER = 41.6359
MEAN_ANOMALY   = 318.4979

EPHEMERIS_TYPE = 0
CLASSIFICATION_TYPE = U
NORAD_CAT_ID   = 25977
ELEMENT_SET_NO = 999
REV_AT_EPOCH   = 67256
BSTAR          = .270215E-3
MEAN_MOTION_DOT = .2379E-4
MEAN_MOTION_DDOT = 0

CCSDS_OMM_VERS = 2.0
CREATION_DATE  = 
ORIGINATOR     = 

OBJECT_NAME    = TERRA
OBJECT_ID      = 1999-068A
CENTER_NAME    = EARTH
REF_FRAME      = TEME
TIME_SYSTEM    = UTC
MEAN_ELEMENT_THEORY = SGP/SGP4

EPOCH          = 2025-12-14T07:27:58.182048
MEAN_MOTION    = 14.60904074
ECCENTRICITY   = .00035992
INCLINATION    = 97.9749
RA_OF_ASC_NODE = 39.9379
ARG_OF_PERICENTER = 91.3882
MEAN_ANOMALY   = 338.4056

EPHEMERIS_TYPE = 0
CLASSIFICATION_TYPE = U
NORAD_CAT_ID   = 25994
ELEMENT_SET_NO = 999
REV_AT_EPOCH   = 38261
BSTAR          = .14673436E-3
MEAN_MOTION_DOT = .674E-5
MEAN_MOTION_DDOT = 0

CCSDS_OMM_VERS = 2.0
CREATION_DATE  = 
ORIGINATOR     = 

OBJECT_NAME    = SL-16 R/B
OBJECT_ID      = 2000-006B
CENTER_NAME    = EARTH
REF_FRAME      = TEME
TIME_SYSTEM    = UTC
MEAN_ELEMENT_THEORY = SGP/SGP4

EPOCH          = 2025-12-14T05:47:23.796096
MEAN_MOTION    = 14.15810362
ECCENTRICITY   = .00185476
INCLINATION    = 71.0030
RA_OF_ASC_NODE = 277.5003
ARG_OF_PERICENTER = 306.5480
MEAN_ANOMALY   = 53.3935

EPHEMERIS_TYPE = 0
CLASSIFICATION_TYPE = U
NORAD_CAT_ID   = 26070
ELEMENT_SET_NO = 999
REV_AT_EPOCH   = 33646
BSTAR          = -.64825105E-4
MEAN_MOTION_DOT = -.176E-5
MEAN_MOTION_DDOT = 0

CCSDS_OMM_VERS = 2.0
CREATION_DATE  = 
ORIGINATOR     = 

OBJECT_NAME    = TITAN 4B R/B
OBJECT_ID      = 2000-047B
CENTER_NAME    = EARTH
REF_FRAME      = TEME
TIME_SYSTEM    = UTC
MEAN_ELEMENT_THEORY = SGP/SGP4

EPOCH          = 2025-12-14T06:25:32.964096
MEAN_MOTION    = 15.08797643
ECCENTRICITY   = .00388079
INCLINATION    = 67.9898
RA_OF_ASC_NODE = 280.5635
ARG_OF_PERICENTER = 142.5548
MEAN_ANOMALY   = 217.8316

EPHEMERIS_TYPE = 0
CLASSIFICATION_TYPE = U
NORAD_CAT_ID   = 26474
ELEMENT_SET_NO = 999
REV_AT_EPOCH   = 38002
BSTAR          = .2877489E-3
MEAN_MOTION_DOT = .4481E-4
MEAN_MOTION_DDOT = 0

CCSDS_OMM_VERS = 2.0
CREATION_DATE  = 
ORIGINATOR     = 

OBJECT_NAME    = ENVISAT
OBJECT_ID      = 2002-009A
CENTER_NAME    = EARTH
REF_FRAME      = TEME
TIME_SYSTEM    = UTC
MEAN_ELEMENT_THEORY = SGP/SGP4

EPOCH          = 2025-12-14T09:16:43.447008
MEAN_MOTION    = 14.39000077
ECCENTRICITY   = .00011414
INCLINATION    = 98.3602
RA_OF_ASC_NODE = 299.0854
ARG_OF_PERICENTER = 83.6000
MEAN_ANOMALY   = 85.8332

EPHEMERIS_TYPE = 0
CLASSIFICATION_TYPE = U
NORAD_CAT_ID   = 27386
ELEMENT_SET_NO = 999
REV_AT_EPOCH   = 24690
BSTAR          = .78309974E-4
MEAN_MOTION_DOT = .199E-5
MEAN_MOTION_DDOT = 0

